CCSDS_OMM_VERS,COMMENT,CREATION_DATE,ORIGINATOR,OBJECT_NAME,OBJECT_ID,CENTER_NAME,REF_FRAME,TIME_SYSTEM,MEAN_ELEMENT_THEORY,EPOCH,MEAN_MOTION,ECCENTRICITY,INCLINATION,RA_OF_ASC_NODE,ARG_OF_PERICENTER,MEAN_ANOMALY,EPHEMERIS_TYPE,CLASSIFICATION_TYPE,NORAD_CAT_ID,ELEMENT_SET_NO,REV_AT_EPOCH,BSTAR,MEAN_MOTION_DOT,MEAN_MOTION_DDOT,SEMIMAJOR_AXIS,PERIOD,APOAPSIS,PERIAPSIS,OBJECT_TYPE,RCS_SIZE,COUNTRY_CODE,LAUNCH_DATE,SITE,DECAY_DATE,FILE,GP_ID,TLE_LINE0,TLE_LINE1,TLE_LINE2
"2.0","GENERATED VIA SPACE-TRACK.ORG API","2020-10-29T22:26:10","18 SPCS","STARLINK-1694","2020-070N","EARTH","TEME","UTC","SGP4","2020-10-29T20:00:01.999872","15.62894347","0.00012350","53.0003","327.2683","67.5514","204.1702","0","U","46544","999","449","-0.00044617000000","-0.00041406","0.0000000000000","6757.438","92.136","380.137","378.468","PAYLOAD","","US","2020-10-06","AFETR","","2865422","164446145","0 STARLINK-1694","1 46544U 20070N   20303.83335648 -.00041406  00000-0 -44617-3 0  9992","2 46544  53.0003 327.2683 0001235  67.5514 204.1702 15.62894347  4498"
"2.0","GENERATED VIA SPACE-TRACK.ORG API","2020-10-30T02:43:22","18 SPCS","STARLINK-1694","2020-070N","EARTH","TEME","UTC","SGP4","2020-10-29T22:00:00.999936","15.62925616","0.00013380","53.0006","326.8598","68.8985","311.8914","0","U","46544","999","183","-0.00155800000000","-0.00141686","0.0000000000000","6757.348","92.134","380.117","378.309","PAYLOAD","","US","2020-10-06","AFETR","","2865463","164467337","0 STARLINK-1694","1 46544U 20070N   20303.91667824 -.00141686 +00000-0 -15580-2 0  9992","2 46544 053.0006 326.8598 0001338 068.8985 311.8914 15.62925616001831"
"2.0","GENERATED VIA SPACE-TRACK.ORG API","2020-10-30T06:56:09","18 SPCS","STARLINK-1694","2020-070N","EARTH","TEME","UTC","SGP4","2020-10-30T04:00:00.999936","15.62903543","0.00014460","53.0010","325.6361","73.6046","274.6030","0","U","46544","999","454","-0.00351290000000","-0.00311997","0.0000000000000","6757.411","92.136","380.253","378.299","PAYLOAD","","US","2020-10-06","AFETR","","2865697","164472971","0 STARLINK-1694","1 46544U 20070N   20304.16667824 -.00311997  00000-0 -35129-2 0  9995","2 46544  53.0010 325.6361 0001446  73.6046 274.6030 15.62903543  4544"
"2.0","GENERATED VIA SPACE-TRACK.ORG API","2020-10-30T16:41:09","18 SPCS","STARLINK-1694","2020-070N","EARTH","TEME","UTC","SGP4","2020-10-30T06:00:00.999648","15.62874937","0.00015130","53.0008","325.2286","69.9989","27.3377","0","U","46544","999","182","-0.00415360000000","-0.00365990","0.0000000000000","6757.494","92.137","380.381","378.336","PAYLOAD","","US","2020-10-06","AFETR","","2866056","164500934","0 STARLINK-1694","1 46544U 20070N   20304.25001157 -.00365990 +00000-0 -41536-2 0  9997","2 46544 053.0008 325.2286 0001513 069.9989 027.3377 15.62874937001821"
"2.0","GENERATED VIA SPACE-TRACK.ORG API","2020-10-30T22:36:10","18 SPCS","STARLINK-1694","2020-070N","EARTH","TEME","UTC","SGP4","2020-10-30T20:00:06.000192","15.62520146","0.00011340","52.9998","322.3696","72.3048","69.0729","0","U","46544","999","464","0.00054067000000","0.00048821","0.0000000000000","6758.517","92.158","381.148","379.615","PAYLOAD","","US","2020-10-06","AFETR","","2866284","164506597","0 STARLINK-1694","1 46544U 20070N   20304.83340278  .00048821  00000-0  54067-3 0  9994","2 46544  52.9998 322.3696 0001134  72.3048  69.0729 15.62520146  4640"
"2.0","GENERATED VIA SPACE-TRACK.ORG API","2020-10-31T03:44:25","18 SPCS","STARLINK-1694","2020-070N","EARTH","TEME","UTC","SGP4","2020-10-30T22:00:00.999936","15.62505299","0.00011800","52.9997","321.9615","75.1843","174.9070","0","U","46544","999","177","0.00107280000000","0.00097933","0.0000000000000","6758.560","92.159","381.222","379.627","PAYLOAD","","US","2020-10-06","AFETR","","2866339","164527398","0 STARLINK-1694","1 46544U 20070N   20304.91667824 +.00097933 +00000-0 +10728-2 0  9995","2 46544 052.9997 321.9615 0001180 075.1843 174.9070 15.62505299001778"
"2.0","GENERATED VIA SPACE-TRACK.ORG API","2020-10-31T14:46:10","18 SPCS","STARLINK-1694","2020-070N","EARTH","TEME","UTC","SGP4","2020-10-31T12:00:00.999648","15.62675652","0.00011890","52.9999","319.1080","58.0201","235.3534","0","U","46544","999","475","-0.00026649000000","-0.00024786","0.0000000000000","6758.068","92.149","380.737","379.130","PAYLOAD","","US","2020-10-06","AFETR","","2866978","164541479","0 STARLINK-1694","1 46544U 20070N   20305.50001157 -.00024786  00000-0 -26649-3 0  9990","2 46544  52.9999 319.1080 0001189  58.0201 235.3534 15.62675652  4751"
"2.0","GENERATED VIA SPACE-TRACK.ORG API","2020-10-31T20:37:03","18 SPCS","STARLINK-1694","2020-070N","EARTH","TEME","UTC","SGP4","2020-10-31T14:00:01.000224","15.63043674","0.00016860","52.9995","318.6996","20.6830","21.6850","0","U","46544","999","188","-0.01083600000000","-0.00913513","0.0000000000000","6757.007","92.127","380.012","377.733","PAYLOAD","","US","2020-10-06","AFETR","","2867033","164563655","0 STARLINK-1694","1 46544U 20070N   20305.58334491 -.00913513 +00000-0 -10836-1 0  9992","2 46544 052.9995 318.6996 0001686 020.6830 021.6850 15.63043674001884"
"2.0","GENERATED VIA SPACE-TRACK.ORG API","2020-10-31T22:46:10","18 SPCS","STARLINK-1694","2020-070N","EARTH","TEME","UTC","SGP4","2020-10-31T20:00:01.999872","15.61881896","0.00013310","53.0001","317.4726","70.0613","299.8583","0","U","46544","999","480","0.00826800000000","0.00795742","0.0000000000000","6760.358","92.196","383.123","381.323","PAYLOAD","","US","2020-10-06","AFETR","","2867357","164571564","0 STARLINK-1694","1 46544U 20070N   20305.83335648  .00795742  00000-0  82680-2 0  9992","2 46544  53.0001 317.4726 0001331  70.0613 299.8583 15.61881896  4808"
"2.0","GENERATED VIA SPACE-TRACK.ORG API","2020-11-01T03:27:44","18 SPCS","STARLINK-1694","2020-070N","EARTH","TEME","UTC","SGP4","2020-10-31T22:00:03.000096","15.61504998","0.00010450","52.9998","317.0640","55.1879","63.8380","0","U","46544","999","180","0.01934100000000","0.01911112","0.0000000000000","6761.446","92.218","384.017","382.604","PAYLOAD","","US","2020-10-06","AFETR","","2867442","164592549","0 STARLINK-1694","1 46544U 20070N   20305.91670139 +.01911112 +00000-0 +19341-1 0  9993","2 46544 052.9998 317.0640 0001045 055.1879 063.8380 15.61504998001808"
"2.0","GENERATED VIA SPACE-TRACK.ORG API","2020-11-01T14:56:10","18 SPCS","STARLINK-1694","2020-070N","EARTH","TEME","UTC","SGP4","2020-11-01T14:00:01.000224","15.62752414","0.00012120","52.9996","313.8019","69.7933","201.1312","0","U","46544","999","492","-0.00000466580000","-0.00000961","0.0000000000000","6757.847","92.145","380.531","378.893","PAYLOAD","","US","2020-10-06","AFETR","","2868156","164608462","0 STARLINK-1694","1 46544U 20070N   20306.58334491 -.00000961  00000-0 -46658-5 0  9992","2 46544  52.9996 313.8019 0001212  69.7933 201.1312 15.62752414  4925"
"2.0","GENERATED VIA SPACE-TRACK.ORG API","2020-11-02T02:24:39","18 SPCS","STARLINK-1694","2020-070N","EARTH","TEME","UTC","SGP4","2020-11-01T22:00:01.999584","15.62752122","0.00012170","52.9995","312.1681","71.2038","276.1863","0","U","46544","999","195","0.00000187010000","-0.00000363","0.0000000000000","6757.848","92.145","380.535","378.890","PAYLOAD","","US","2020-10-06","AFETR","","2868521","164678578","0 STARLINK-1694","1 46544U 20070N   20306.91668981 -.00000363 +00000-0 +18701-5 0  9996","2 46544 052.9995 312.1681 0001217 071.2038 276.1863 15.62752122001959"
"2.0","GENERATED VIA SPACE-TRACK.ORG API","2020-11-02T06:46:10","18 SPCS","STARLINK-1694","2020-070N","EARTH","TEME","UTC","SGP4","2020-11-02T06:00:00.999648","15.62149063","0.00024920","52.9988","310.5375","113.9854","309.8241","0","U","46544","999","502","0.02713500000000","0.02762870","0.0000000000000","6759.587","92.180","383.136","379.767","PAYLOAD","","US","2020-10-06","AFETR","","2868731","164704218","0 STARLINK-1694","1 46544U 20070N   20307.25001157  .02762870  00000-0  27135-1 0  9996","2 46544  52.9988 310.5375 0002492 113.9854 309.8241 15.62149063  5029"
"2.0","GENERATED VIA SPACE-TRACK.ORG API","2020-11-02T14:26:11","18 SPCS","STARLINK-1694","2020-070N","EARTH","TEME","UTC","SGP4","2020-11-02T10:00:01.999584","15.61850355","0.00044980","52.9976","309.7199","98.7138","183.3240","0","U","46544","999","505","0.13070000000000","0.14312210","0.0000000000000","6760.449","92.198","385.355","379.273","PAYLOAD","","US","2020-10-06","AFETR","","2868954","164709587","0 STARLINK-1694","1 46544U 20070N   20307.41668981  .14312210  00000-0  13070+0 0  9991","2 46544  52.9976 309.7199 0004498  98.7138 183.3240 15.61850355  5052"
"2.0","GENERATED VIA SPACE-TRACK.ORG API","2020-11-02T18:07:34","18 SPCS","STARLINK-1694","2020-070N","EARTH","TEME","UTC","SGP4","2020-11-02T14:00:01.000224","15.62374363","0.00007730","52.9995","308.9106","72.1224","67.3434","0","U","46544","999","177","0.00028432000000","0.00025200","0.0000000000000","6758.937","92.167","381.325","380.280","PAYLOAD","","US","2020-10-06","AFETR","","2868999","164730718","0 STARLINK-1694","1 46544U 20070N   20307.58334491 +.00025200 +00000-0 +28432-3 0  9992","2 46544 052.9995 308.9106 0000773 072.1224 067.3434 15.62374363001778"
"2.0","GENERATED VIA SPACE-TRACK.ORG API","2020-11-03T01:26:30","18 SPCS","STARLINK-1694","2020-070N","EARTH","TEME","UTC","SGP4","2020-11-02T22:00:00.999936","15.62374564","0.00007720","52.9997","307.2773","89.4594","125.9669","0","U","46544","999","182","0.00092388000000","0.00083686","0.0000000000000","6758.937","92.167","381.323","380.280","PAYLOAD","","US","2020-10-06","AFETR","","2869318","164758309","0 STARLINK-1694","1 46544U 20070N   20307.91667824 +.00083686 +00000-0 +92388-3 0  9991","2 46544 052.9997 307.2773 0000772 089.4594 125.9669 15.62374564001822"
